start=new Date('2023-05-26T00:00:00.000Z').valueOf();
sats=[{"FILE":"3917122","DECAY_DATE":null,"CENTER_NAME":"EARTH","NORAD_CAT_ID":"45581","OBJECT_ID":"2020-025BC","SEMIMAJOR_AXIS":"6925.332","RCS_SIZE":"LARGE","OBJECT_TYPE":"PAYLOAD","EPHEMERIS_TYPE":"0","REF_FRAME":"TEME","ECCENTRICITY":"0.00009770","MEAN_MOTION":"15.06405473","TIME_SYSTEM":"UTC","BSTAR":"0.00028971000000","TLE_LINE1":"1 45581U 20025BC  23145.90674305  .00004037  00000-0  28971-3 0  9995","LAUNCH_DATE":"2020-04-22","EPOCH":"2023-05-25T21:45:42.599520","PERIOD":"95.592","ELEMENT_SET_NO":"999","TLE_LINE2":"2 45581  53.0541 330.1119 0000977 102.3514 257.7584 15.06405473171956","MEAN_ANOMALY":"257.7584","RA_OF_ASC_NODE":"330.1119","OBJECT_NAME":"STARLINK-1335","COUNTRY_CODE":"US","PERIAPSIS":"546.520","MEAN_MOTION_DDOT":"0.0000000000000","MEAN_ELEMENT_THEORY":"SGP4","MEAN_MOTION_DOT":"0.00004037","APOAPSIS":"547.873","ARG_OF_PERICENTER":"102.3514","SITE":"AFETR","REV_AT_EPOCH":"17195","GP_ID":"232513058","CLASSIFICATION_TYPE":"U","INCLINATION":"53.0541"},{"EPOCH":"2023-05-25T22:17:32.704800","LAUNCH_DATE":"2020-04-22","BSTAR":"0.00006701700000","TLE_LINE1":"1 45582U 20025BD  23145.92885075  .00000717  00000-0  67017-4 0  9992","TIME_SYSTEM":"UTC","ECCENTRICITY":"0.00010930","MEAN_MOTION":"15.06407755","EPHEMERIS_TYPE":"0","REF_FRAME":"TEME","OBJECT_TYPE":"PAYLOAD","RCS_SIZE":"LARGE","OBJECT_ID":"2020-025BD","SEMIMAJOR_AXIS":"6925.325","NORAD_CAT_ID":"45582","DECAY_DATE":null,"CENTER_NAME":"EARTH","FILE":"3917122","INCLINATION":"53.0558","CLASSIFICATION_TYPE":"U","GP_ID":"232511806","REV_AT_EPOCH":"17195","SITE":"AFETR","ARG_OF_PERICENTER":"103.1556","APOAPSIS":"547.947","MEAN_MOTION_DOT":"0.00000717","MEAN_ELEMENT_THEORY":"SGP4","MEAN_MOTION_DDOT":"0.0000000000000","PERIAPSIS":"546.433","OBJECT_NAME":"STARLINK-1337","COUNTRY_CODE":"US","RA_OF_ASC_NODE":"330.0119","TLE_LINE2":"2 45582  53.0558 330.0119 0001093 103.1556 256.9555 15.06407755171953","MEAN_ANOMALY":"256.9555","ELEMENT_SET_NO":"999","PERIOD":"95.592"},{"APOAPSIS":"547.350","MEAN_MOTION_DDOT":"0.0000000000000","PERIAPSIS":"547.017","MEAN_MOTION_DOT":"0.00004282","MEAN_ELEMENT_THEORY":"SGP4","MEAN_ANOMALY":"245.1743","TLE_LINE2":"2 45583  53.0544 330.6899 0000240 114.9271 245.1743 15.06409786171930","COUNTRY_CODE":"US","OBJECT_NAME":"STARLINK-1340","RA_OF_ASC_NODE":"330.6899","PERIOD":"95.592","ELEMENT_SET_NO":"999","INCLINATION":"53.0544","CLASSIFICATION_TYPE":"U","GP_ID":"232512056","ARG_OF_PERICENTER":"114.9271","SITE":"AFETR","REV_AT_EPOCH":"17193","OBJECT_TYPE":"PAYLOAD","RCS_SIZE":"LARGE","SEMIMAJOR_AXIS":"6925.319","OBJECT_ID":"2020-025BE","FILE":"3917122","NORAD_CAT_ID":"45583","CENTER_NAME":"EARTH","DECAY_DATE":null,"EPOCH":"2023-05-25T18:39:56.162304","LAUNCH_DATE":"2020-04-22","ECCENTRICITY":"0.00002400","MEAN_MOTION":"15.06409786","BSTAR":"0.00030605000000","TLE_LINE1":"1 45583U 20025BE  23145.77773336  .00004282  00000-0  30605-3 0  9995","TIME_SYSTEM":"UTC","REF_FRAME":"TEME","EPHEMERIS_TYPE":"0"},{"FILE":"3917122","CENTER_NAME":"EARTH","DECAY_DATE":null,"NORAD_CAT_ID":"45584","SEMIMAJOR_AXIS":"6717.837","OBJECT_ID":"2020-025BF","RCS_SIZE":"LARGE","OBJECT_TYPE":"PAYLOAD","REF_FRAME":"TEME","EPHEMERIS_TYPE":"0","MEAN_MOTION":"15.76734366","ECCENTRICITY":"0.00009370","TIME_SYSTEM":"UTC","TLE_LINE1":"1 45584U 20025BF  23145.85453597  .00010823  00000-0  70014-4 0  9996","BSTAR":"0.00007001400000","LAUNCH_DATE":"2020-04-22","EPOCH":"2023-05-25T20:30:31.907808","PERIOD":"91.328","ELEMENT_SET_NO":"999","MEAN_ANOMALY":"271.4648","TLE_LINE2":"2 45584  53.0501 314.1924 0000937  88.6479 271.4648 15.76734366172175","RA_OF_ASC_NODE":"314.1924","COUNTRY_CODE":"US","OBJECT_NAME":"STARLINK-1343","PERIAPSIS":"339.073","MEAN_MOTION_DDOT":"0.0000000000000","MEAN_ELEMENT_THEORY":"SGP4","MEAN_MOTION_DOT":"0.00010823","APOAPSIS":"340.332","ARG_OF_PERICENTER":"88.6479","SITE":"AFETR","REV_AT_EPOCH":"17217","GP_ID":"232512808","CLASSIFICATION_TYPE":"U","INCLINATION":"53.0501"},{"EPOCH":"2023-05-25T22:06:56.146752","LAUNCH_DATE":"2020-04-22","ECCENTRICITY":"0.00011960","MEAN_MOTION":"15.06407825","BSTAR":"0.00029201000000","TLE_LINE1":"1 45586U 20025BH  23145.92148318  .00004072  00000-0  29201-3 0  9998","TIME_SYSTEM":"UTC","EPHEMERIS_TYPE":"0","REF_FRAME":"TEME","OBJECT_TYPE":"PAYLOAD","RCS_SIZE":"LARGE","SEMIMAJOR_AXIS":"6925.325","OBJECT_ID":"2020-025BH","FILE":"3917122","NORAD_CAT_ID":"45586","DECAY_DATE":null,"CENTER_NAME":"EARTH","INCLINATION":"53.0555","CLASSIFICATION_TYPE":"U","GP_ID":"232513559","ARG_OF_PERICENTER":"127.9610","REV_AT_EPOCH":"17194","SITE":"AFETR","APOAPSIS":"548.018","MEAN_MOTION_DDOT":"0.0000000000000","PERIAPSIS":"546.361","MEAN_MOTION_DOT":"0.00004072","MEAN_ELEMENT_THEORY":"SGP4","MEAN_ANOMALY":"232.1487","TLE_LINE2":"2 45586  53.0555 330.0447 0001196 127.9610 232.1487 15.06407825171944","COUNTRY_CODE":"US","OBJECT_NAME":"STARLINK-1347","RA_OF_ASC_NODE":"330.0447","PERIOD":"95.592","ELEMENT_SET_NO":"999"},{"SITE":"AFETR","REV_AT_EPOCH":"17194","ARG_OF_PERICENTER":"98.7492","GP_ID":"232512307","INCLINATION":"53.0544","CLASSIFICATION_TYPE":"U","ELEMENT_SET_NO":"999","PERIOD":"95.592","OBJECT_NAME":"STARLINK-1349","COUNTRY_CODE":"US","RA_OF_ASC_NODE":"330.4779","MEAN_ANOMALY":"261.3597","TLE_LINE2":"2 45587  53.0544 330.4779 0000891  98.7492 261.3597 15.06404899171943","MEAN_MOTION_DOT":"0.00002357","MEAN_ELEMENT_THEORY":"SGP4","MEAN_MOTION_DDOT":"0.0000000000000","PERIAPSIS":"546.581","APOAPSIS":"547.816","EPHEMERIS_TYPE":"0","REF_FRAME":"TEME","BSTAR":"0.00017707000000","TLE_LINE1":"1 45587U 20025BJ  23145.82564898  .00002357  00000-0  17707-3 0  9995","TIME_SYSTEM":"UTC","ECCENTRICITY":"0.00008910","MEAN_MOTION":"15.06404899","LAUNCH_DATE":"2020-04-22","EPOCH":"2023-05-25T19:48:56.071872","NORAD_CAT_ID":"45587","DECAY_DATE":null,"CENTER_NAME":"EARTH","FILE":"3917122","SEMIMAJOR_AXIS":"6925.334","OBJECT_ID":"2020-025BJ","RCS_SIZE":"LARGE","OBJECT_TYPE":"PAYLOAD"},{"LAUNCH_DATE":"2020-04-22","EPOCH":"2023-05-25T19:17:05.470656","REF_FRAME":"TEME","EPHEMERIS_TYPE":"0","TIME_SYSTEM":"UTC","BSTAR":"0.00013547000000","TLE_LINE1":"1 45588U 20025BK  23145.80353554  .00001738  00000-0  13547-3 0  9999","MEAN_MOTION":"15.06411363","ECCENTRICITY":"0.00009130","RCS_SIZE":"LARGE","OBJECT_TYPE":"PAYLOAD","DECAY_DATE":null,"CENTER_NAME":"EARTH","NORAD_CAT_ID":"45588","FILE":"3917122","OBJECT_ID":"2020-025BK","SEMIMAJOR_AXIS":"6925.314","GP_ID":"232512557","CLASSIFICATION_TYPE":"U","INCLINATION":"53.0546","REV_AT_EPOCH":"17193","SITE":"AFETR","ARG_OF_PERICENTER":"106.1892","MEAN_ELEMENT_THEORY":"SGP4","MEAN_MOTION_DOT":"0.00001738","PERIAPSIS":"546.546","MEAN_MOTION_DDOT":"0.0000000000000","APOAPSIS":"547.811","ELEMENT_SET_NO":"999","PERIOD":"95.591","RA_OF_ASC_NODE":"330.5787","OBJECT_NAME":"STARLINK-1360","COUNTRY_CODE":"US","TLE_LINE2":"2 45588  53.0546 330.5787 0000913 106.1892 253.9197 15.06411363171935","MEAN_ANOMALY":"253.9197"},{"NORAD_CAT_ID":"45589","DECAY_DATE":null,"CENTER_NAME":"EARTH","FILE":"3917122","SEMIMAJOR_AXIS":"6925.321","OBJECT_ID":"2020-025BL","RCS_SIZE":"LARGE","OBJECT_TYPE":"PAYLOAD","EPHEMERIS_TYPE":"0","REF_FRAME":"TEME","BSTAR":"0.00039379000000","TLE_LINE1":"1 45589U 20025BL  23145.93254081  .00005590  00000-0  39379-3 0  9990","TIME_SYSTEM":"UTC","MEAN_MOTION":"15.06409067","ECCENTRICITY":"0.00007570","LAUNCH_DATE":"2020-04-22","EPOCH":"2023-05-25T22:22:51.525984","ELEMENT_SET_NO":"999","PERIOD":"95.592","OBJECT_NAME":"STARLINK-1364","COUNTRY_CODE":"US","RA_OF_ASC_NODE":"329.9964","MEAN_ANOMALY":"284.7494","TLE_LINE2":"2 45589  53.0552 329.9964 0000757  75.3578 284.7494 15.06409067171958","MEAN_MOTION_DOT":"0.00005590","MEAN_ELEMENT_THEORY":"SGP4","MEAN_MOTION_DDOT":"0.0000000000000","PERIAPSIS":"546.662","APOAPSIS":"547.710","SITE":"AFETR","REV_AT_EPOCH":"17195","ARG_OF_PERICENTER":"75.3578","GP_ID":"232513309","INCLINATION":"53.0552","CLASSIFICATION_TYPE":"U"},{"EPOCH":"2023-05-25T21:09:52.905312","LAUNCH_DATE":"2020-04-22","TIME_SYSTEM":"UTC","TLE_LINE1":"1 45590U 20025BM  23145.88186233  .00004536  00000-0  32310-3 0  9996","BSTAR":"0.00032310000000","ECCENTRICITY":"0.00009480","MEAN_MOTION":"15.06413106","REF_FRAME":"TEME","EPHEMERIS_TYPE":"0","OBJECT_TYPE":"PAYLOAD","RCS_SIZE":"LARGE","OBJECT_ID":"2020-025BM","SEMIMAJOR_AXIS":"6925.308","DECAY_DATE":null,"CENTER_NAME":"EARTH","NORAD_CAT_ID":"45590","FILE":"3917122","CLASSIFICATION_TYPE":"U","INCLINATION":"53.0546","GP_ID":"232513059","REV_AT_EPOCH":"17154","SITE":"AFETR","ARG_OF_PERICENTER":"118.2727","APOAPSIS":"547.830","MEAN_ELEMENT_THEORY":"SGP4","MEAN_MOTION_DOT":"0.00004536","PERIAPSIS":"546.517","MEAN_MOTION_DDOT":"0.0000000000000","RA_OF_ASC_NODE":"0.2275","OBJECT_NAME":"STARLINK-1365","COUNTRY_CODE":"US","TLE_LINE2":"2 45590  53.0546   0.2275 0000948 118.2727 241.8357 15.06413106171548","MEAN_ANOMALY":"241.8357","ELEMENT_SET_NO":"999","PERIOD":"95.591"},{"LAUNCH_DATE":"2020-06-04","EPOCH":"2023-05-25T22:08:15.747072","EPHEMERIS_TYPE":"0","REF_FRAME":"TEME","ECCENTRICITY":"0.00010450","MEAN_MOTION":"15.06408556","TLE_LINE1":"1 45658U 20035B   23145.92240448  .00005884  00000-0  41349-3 0  9995","BSTAR":"0.00041349000000","TIME_SYSTEM":"UTC","RCS_SIZE":"LARGE","OBJECT_TYPE":"PAYLOAD","FILE":"3917122","NORAD_CAT_ID":"45658","DECAY_DATE":null,"CENTER_NAME":"EARTH","SEMIMAJOR_AXIS":"6925.322","OBJECT_ID":"2020-035B","GP_ID":"232513564","INCLINATION":"53.0544","CLASSIFICATION_TYPE":"U","ARG_OF_PERICENTER":"95.4135","REV_AT_EPOCH":"16518","SITE":"AFETR","MEAN_MOTION_DDOT":"0.0000000000000","PERIAPSIS":"546.464","MEAN_MOTION_DOT":"0.00005884","MEAN_ELEMENT_THEORY":"SGP4","APOAPSIS":"547.911","PERIOD":"95.592","ELEMENT_SET_NO":"999","TLE_LINE2":"2 45658  53.0544 320.0401 0001045  95.4135 264.6973 15.06408556165186","MEAN_ANOMALY":"264.6973","COUNTRY_CODE":"US","OBJECT_NAME":"STARLINK-1441","RA_OF_ASC_NODE":"320.0401"}];
